OBJECT_NAME,OBJECT_ID,EPOCH,MEAN_MOTION,ECCENTRICITY,INCLINATION,RA_OF_ASC_NODE,ARG_OF_PERICENTER,MEAN_ANOMALY,EPHEMERIS_TYPE,CLASSIFICATION_TYPE,NORAD_CAT_ID,ELEMENT_SET_NO,REV_AT_EPOCH,BSTAR,MEAN_MOTION_DOT,MEAN_MOTION_DDOT
YAMAL 401,2014-082A,2026-07-07T16:21:31.510080,1.00273763,.00005046,0.0052,350.7463,70.2180,200.0204,0,U,40345,999,4212,0,-.214E-5,0
ASTRA 2G,2014-089A,2026-07-07T13:52:50.144160,1.00271903,.00045535,0.0457,4.2800,71.5292,86.1376,0,U,40364,999,4217,0,.165E-5,0
FENGYUN 2G,2014-090A,2026-07-07T14:13:13.708128,1.00264085,.00038496,5.6872,72.5733,150.3506,15.3877,0,U,40367,999,4220,0,-.288E-5,0
MUOS-3,2015-002A,2026-07-07T10:14:58.850592,1.00270209,.00530179,4.5590,43.6043,177.5061,202.5187,0,U,40374,999,4179,0,-.117E-5,0
INMARSAT 5-F2,2015-005A,2026-07-07T06:38:27.088224,1.00270029,.00001385,0.0190,31.5390,103.7772,194.5329,0,U,40384,999,4119,0,-.27E-5,0
ABS-3A,2015-010A,2026-07-07T08:35:58.314048,1.00268875,.00015866,0.0444,67.3099,348.1895,355.8307,0,U,40424,999,4157,0,0,0
EUTELSAT 115 WEST B,2015-010B,2026-07-06T23:30:45.197856,1.00271018,.00001353,0.0015,39.2211,4.7008,118.8045,0,U,40425,999,4158,0,-.1E-6,0
EXPRESS-AM7,2015-012A,2026-07-07T10:30:57.320352,1.00273759,.00029868,0.0223,74.1987,42.4313,6.5176,0,U,40505,999,4121,0,.166E-5,0
BEIDOU-3S IGSO-1S,2015-019A,2026-07-02T19:12:21.705408,1.00680073,.00768606,49.1798,295.2769,219.1125,144.2493,0,U,40549,999,4123,0,-.19E-5,0
THOR 7,2015-022A,2026-07-07T13:44:28.445280,1.00270710,.00024696,0.0122,191.3185,276.1527,23.5306,0,U,40613,999,4102,0,.7E-7,0
TURKMENALEM52E/MONACOSAT,2015-023A,2026-07-07T13:59:41.985312,1.00273557,.00026701,0.0175,55.4172,50.0769,82.0069,0,U,40617,999,4105,0,.119E-5,0
DIRECTV 15,2015-026A,2026-07-07T08:25:57.165312,1.00270888,.00002357,0.0159,68.6128,274.1901,326.1380,0,U,40663,999,4066,0,-.87E-6,0
SKY MEXICO-1,2015-026B,2026-07-07T13:22:15.574944,1.00270671,.00024784,0.0158,305.7926,181.9321,279.5699,0,U,40664,999,4065,0,-.219E-5,0
METEOSAT-11 (MSG-4),2015-034A,2026-07-07T06:56:47.830272,1.00269388,.00022492,3.2505,70.9853,350.9491,336.7955,0,U,40732,999,741,0,.75E-6,0
STAR ONE C4,2015-034B,2026-07-07T11:42:09.864288,1.00272198,.00016145,0.0332,317.3492,124.0885,309.5648,0,U,40733,999,4021,0,-.25E-5,0
WGS F7 (USA 263),2015-036A,2026-07-07T02:36:10.027296,1.00271777,.00007726,0.0437,65.8264,141.5398,291.7419,0,U,40746,999,4007,0,0,0
INTELSAT 34 (IS-34),2015-039A,2026-07-07T13:28:59.928672,1.00270281,.00003243,0.0116,335.0013,32.9039,64.3856,0,U,40874,999,3983,0,-.27E-5,0
EUTELSAT 8 WEST B,2015-039B,2026-07-07T13:42:21.148704,1.00271549,.00037958,0.0621,357.3690,103.6112,22.1380,0,U,40875,999,3986,0,-.5E-6,0
GSAT-6,2015-041A,2026-07-07T14:08:21.675264,1.00269200,.00031409,1.9707,82.3415,14.5615,123.2006,0,U,40880,999,3980,0,-.145E-5,0
INMARSAT 5-F3,2015-042A,2026-07-07T02:37:24.906720,1.00270548,.00003859,0.0190,40.2404,119.0435,344.7395,0,U,40882,999,3977,0,.65E-6,0
MUOS-4,2015-044A,2026-07-07T15:06:39.339072,1.00271548,.0056874,4.3659,42.3439,3.3533,181.5510,0,U,40887,999,3976,0,-.8E-6,0
TJS-1,2015-046A,2026-07-07T14:42:30.025728,1.00273974,.00051579,0.3727,84.8269,14.2073,202.1560,0,U,40892,999,3977,0,-.141E-5,0
EXPRESS-AM8,2015-048A,2026-07-07T10:15:28.802880,1.00274101,.00002574,0.0235,286.7976,70.7127,67.7574,0,U,40895,999,3954,0,-.96E-6,0
BEIDOU-3S IGSO-2S,2015-053A,2026-07-06T15:57:08.432352,1.00255328,.00658813,49.1915,258.5511,192.9035,166.4706,0,U,40938,999,3954,0,-.111E-5,0
SKY MUSTER 1 (NBN1A),2015-054A,2026-07-07T12:02:38.558688,1.00270526,.00016884,0.0171,343.2116,125.4143,137.7503,0,U,40940,999,3946,0,-.263E-5,0
ARSAT 2,2015-054B,2026-07-07T01:23:06.644256,1.00271359,.00020065,0.0201,316.8516,140.7981,127.1598,0,U,40941,999,3950,0,-.21E-5,0
MORELOS 3,2015-056A,2026-07-07T13:12:31.508352,1.00271539,.00002419,3.2037,15.5987,73.9609,280.9797,0,U,40946,999,3948,0,-.3E-6,0
APSTAR-9,2015-059A,2026-07-07T14:25:17.276160,1.00269516,.0003174,0.0142,1.3941,183.1979,99.2966,0,U,40982,999,3932,0,-.251E-5,0
TURKSAT 4B,2015-060A,2026-07-07T13:59:04.544736,1.00269507,.00024154,0.0162,8.0829,108.1585,69.0518,0,U,40984,999,3930,0,.13E-5,0
ZHONGXING-2C,2015-063A,2026-07-07T15:42:24.748704,1.00268911,.0008205,0.3232,88.9643,97.0080,78.6821,0,U,41021,999,3918,0,-.308E-5,0
GSAT-15,2015-065A,2026-07-07T14:24:05.337792,1.00272563,.00038645,0.0252,271.1950,176.6977,147.1967,0,U,41028,999,3900,0,-.243E-5,0
BADR-7 (ARABSAT-6B),2015-065B,2026-07-07T13:52:12.702720,1.00270733,.00045253,0.0433,211.8668,349.9335,317.7744,0,U,41029,999,3897,0,.16E-5,0
