YAMAL 401               
1 40345U 14082A   26188.68161470 -.00000214  00000+0  00000+0 0  9995
2 40345   0.0052 350.7463 0000504  70.2180 200.0204  1.00273763 42126
ASTRA 2G                
1 40364U 14089A   26188.57835815  .00000165  00000+0  00000+0 0  9996
2 40364   0.0457   4.2800 0004553  71.5292  86.1376  1.00271903 42170
FENGYUN 2G              
1 40367U 14090A   26188.59251977 -.00000288  00000+0  00000+0 0  9991
2 40367   5.6872  72.5733 0003849 150.3506  15.3877  1.00264085 42206
MUOS-3                  
1 40374U 15002A   26188.42707003 -.00000117  00000+0  00000+0 0  9992
2 40374   4.5590  43.6043 0053017 177.5061 202.5187  1.00270209 41793
INMARSAT 5-F2           
1 40384U 15005A   26188.27670241 -.00000270  00000+0  00000+0 0  9992
2 40384   0.0190  31.5390 0000138 103.7772 194.5329  1.00270029 41190
ABS-3A                  
1 40424U 15010A   26188.35831382  .00000000  00000+0  00000+0 0  9997
2 40424   0.0444  67.3099 0001586 348.1895 355.8307  1.00268875 41575
EUTELSAT 115 WEST B     
1 40425U 15010B   26187.97968979 -.00000010  00000+0  00000+0 0  9990
2 40425   0.0015  39.2211 0000135   4.7008 118.8045  1.00271018 41584
EXPRESS-AM7             
1 40505U 15012A   26188.43816343  .00000166  00000+0  00000+0 0  9991
2 40505   0.0223  74.1987 0002986  42.4313   6.5176  1.00273759 41218
BEIDOU-3S IGSO-1S       
1 40549U 15019A   26183.80025122 -.00000190  00000+0  00000+0 0  9997
2 40549  49.1798 295.2769 0076860 219.1125 144.2493  1.00680073 41232
THOR 7                  
1 40613U 15022A   26188.57255145  .00000007  00000+0  00000+0 0  9998
2 40613   0.0122 191.3185 0002469 276.1527  23.5306  1.00270710 41024
TURKMENALEM52E/MONACOSAT
1 40617U 15023A   26188.58312483  .00000119  00000+0  00000+0 0  9997
2 40617   0.0175  55.4172 0002670  50.0769  82.0069  1.00273557 41054
DIRECTV 15              
1 40663U 15026A   26188.35135608 -.00000087  00000+0  00000+0 0  9993
2 40663   0.0159  68.6128 0000235 274.1901 326.1380  1.00270888 40664
SKY MEXICO-1            
1 40664U 15026B   26188.55712471 -.00000219  00000+0  00000+0 0  9992
2 40664   0.0158 305.7926 0002478 181.9321 279.5699  1.00270671 40650
METEOSAT-11 (MSG-4)     
1 40732U 15034A   26188.28944248  .00000075  00000+0  00000+0 0  9995
2 40732   3.2505  70.9853 0002249 350.9491 336.7955  1.00269388  7410
STAR ONE C4             
1 40733U 15034B   26188.48761417 -.00000250  00000+0  00000+0 0  9999
2 40733   0.0332 317.3492 0001614 124.0885 309.5648  1.00272198 40218
WGS F7 (USA 263)        
1 40746U 15036A   26188.10844939  .00000000  00000+0  00000+0 0  9997
2 40746   0.0437  65.8264 0000772 141.5398 291.7419  1.00271777 40071
INTELSAT 34 (IS-34)     
1 40874U 15039A   26188.56180473 -.00000270  00000+0  00000+0 0  9998
2 40874   0.0116 335.0013 0000324  32.9039  64.3856  1.00270281 39839
EUTELSAT 8 WEST B       
1 40875U 15039B   26188.57107811 -.00000050  00000+0  00000+0 0  9991
2 40875   0.0621 357.3690 0003795 103.6112  22.1380  1.00271549 39867
GSAT-6                  
1 40880U 15041A   26188.58913976 -.00000145  00000+0  00000+0 0  9993
2 40880   1.9707  82.3415 0003140  14.5615 123.2006  1.00269200 39803
INMARSAT 5-F3           
1 40882U 15042A   26188.10931605  .00000065  00000+0  00000+0 0  9993
2 40882   0.0190  40.2404 0000385 119.0435 344.7395  1.00270548 39775
MUOS-4                  
1 40887U 15044A   26188.62962198 -.00000080  00000+0  00000+0 0  9996
2 40887   4.3659  42.3439 0056874   3.3533 181.5510  1.00271548 39762
TJS-1                   
1 40892U 15046A   26188.61284752 -.00000141  00000+0  00000+0 0  9994
2 40892   0.3727  84.8269 0005157  14.2073 202.1560  1.00273974 39771
EXPRESS-AM8             
1 40895U 15048A   26188.42741670 -.00000096  00000+0  00000+0 0  9994
2 40895   0.0235 286.7976 0000257  70.7127  67.7574  1.00274101 39544
BEIDOU-3S IGSO-2S       
1 40938U 15053A   26187.66468093 -.00000111  00000+0  00000+0 0  9996
2 40938  49.1915 258.5511 0065881 192.9035 166.4706  1.00255328 39546
SKY MUSTER 1 (NBN1A)    
1 40940U 15054A   26188.50183517 -.00000263  00000+0  00000+0 0  9997
2 40940   0.0171 343.2116 0001688 125.4143 137.7503  1.00270526 39462
ARSAT 2                 
1 40941U 15054B   26188.05771579 -.00000210  00000+0  00000+0 0  9991
2 40941   0.0201 316.8516 0002006 140.7981 127.1598  1.00271359 39509
MORELOS 3               
1 40946U 15056A   26188.55036468 -.00000030  00000+0  00000+0 0  9994
2 40946   3.2037  15.5987 0000241  73.9609 280.9797  1.00271539 39480
APSTAR-9                
1 40982U 15059A   26188.60089440 -.00000251  00000+0  00000+0 0  9996
2 40982   0.0142   1.3941 0003174 183.1979  99.2966  1.00269516 39321
TURKSAT 4B              
1 40984U 15060A   26188.58269149  .00000130  00000+0  00000+0 0  9998
2 40984   0.0162   8.0829 0002415 108.1585  69.0518  1.00269507 39307
ZHONGXING-2C            
1 41021U 15063A   26188.65445311 -.00000308  00000+0  00000+0 0  9997
2 41021   0.3232  88.9643 0008205  97.0080  78.6821  1.00268911 39188
GSAT-15                 
1 41028U 15065A   26188.60006178 -.00000243  00000+0  00000+0 0  9993
2 41028   0.0252 271.1950 0003864 176.6977 147.1967  1.00272563 39008
BADR-7 (ARABSAT-6B)     
1 41029U 15065B   26188.57792480  .00000160  00000+0  00000+0 0  9995
2 41029   0.0433 211.8668 0004525 349.9335 317.7744  1.00270733 38975
